DELTA 1 R/B             
1 20323U 89089B   25300.49108993  .00000455  00000+0  12161-3 0  9994
2 20323  97.0805 164.0481 0069049 182.2969 177.7922 14.50514997876427
ARIANE 40 R/B           
1 20443U 90005H   25300.45499763  .00000472  00000+0  16428-3 0  9990
2 20443  98.3305 359.9269 0009125 242.3496 117.6767 14.39744930873639
DELTA 2 R/B(1)          
1 20453U 90008B   25300.36059240  .00032467  00000+0  59044-3 0  9996
2 20453  35.6081 319.0607 0118456 116.6940 244.5973 15.41051700905469
COSMOS 2058             
1 20465U 90010A   25300.50965045  .00004080  00000+0  24936-3 0  9999
2 20465  82.4703 178.4985 0011352  69.4471 290.7976 15.09966061922138
SL-14 R/B               
1 20466U 90010B   25300.54051459  .00000683  00000+0  80147-4 0  9991
2 20466  82.5053  32.4252 0020369  22.8429 337.3687 14.83407475908746
SL-14 R/B               
1 20511U 90018B   25300.43024218  .00000600  00000+0  72578-4 0  9999
2 20511  82.5228 347.6513 0016795 165.6708 194.4987 14.81983015902843
HST                     
1 20580U 90037B   25300.47265094  .00009017  00000+0  32069-3 0  9990
2 20580  28.4674 227.2010 0002133  78.1955 281.8879 15.27172683752915
SL-16 R/B               
1 20625U 90046B   25300.51282130  .00000204  00000+0  12965-3 0  9997
2 20625  71.0000 217.5990 0013057 155.3569 204.8180 14.14991024829555
COSMOS 2084             
1 20663U 90055A   25300.51704944  .00005199  00000+0  37653-3 0  9990
2 20663  62.7911  69.4402 0039529 169.2632 190.9321 15.04587150916273
SL-6 R/B(2)             
1 20666U 90055D   25300.52509549  .00002935  00000+0  23290-3 0  9995
2 20666  62.7849 346.4058 0010700 266.1988  93.7887 15.02736972918176
SL-8 R/B                
1 20775U 90078B   25300.22794885  .00015566  00000+0  48190-3 0  9997
2 20775  82.9087  10.8442 0383822 101.2086 263.2521 14.83628150789474
SL-8 R/B                
1 21088U 91006B   25300.41876520  .00000194  00000+0  17905-3 0  9996
2 21088  82.9393 269.1727 0023676  50.8060  61.9501 13.77479221745722
