CCSDS_OMM_VERS = 2.0
CREATION_DATE  = 
ORIGINATOR     = 

OBJECT_NAME    = DELTA 1 R/B
OBJECT_ID      = 1989-089B
CENTER_NAME    = EARTH
REF_FRAME      = TEME
TIME_SYSTEM    = UTC
MEAN_ELEMENT_THEORY = SGP/SGP4

EPOCH          = 2025-10-27T11:47:10.169952
MEAN_MOTION    = 14.50514997
ECCENTRICITY   = .0069049
INCLINATION    = 97.0805
RA_OF_ASC_NODE = 164.0481
ARG_OF_PERICENTER = 182.2969
MEAN_ANOMALY   = 177.7922

EPHEMERIS_TYPE = 0
CLASSIFICATION_TYPE = U
NORAD_CAT_ID   = 20323
ELEMENT_SET_NO = 999
REV_AT_EPOCH   = 87642
BSTAR          = .12161E-3
MEAN_MOTION_DOT = .455E-5
MEAN_MOTION_DDOT = 0

CCSDS_OMM_VERS = 2.0
CREATION_DATE  = 
ORIGINATOR     = 

OBJECT_NAME    = ARIANE 40 R/B
OBJECT_ID      = 1990-005H
CENTER_NAME    = EARTH
REF_FRAME      = TEME
TIME_SYSTEM    = UTC
MEAN_ELEMENT_THEORY = SGP/SGP4

EPOCH          = 2025-10-27T10:55:11.795232
MEAN_MOTION    = 14.39744930
ECCENTRICITY   = .0009125
INCLINATION    = 98.3305
RA_OF_ASC_NODE = 359.9269
ARG_OF_PERICENTER = 242.3496
MEAN_ANOMALY   = 117.6767

EPHEMERIS_TYPE = 0
CLASSIFICATION_TYPE = U
NORAD_CAT_ID   = 20443
ELEMENT_SET_NO = 999
REV_AT_EPOCH   = 87363
BSTAR          = .16428E-3
MEAN_MOTION_DOT = .472E-5
MEAN_MOTION_DDOT = 0

CCSDS_OMM_VERS = 2.0
CREATION_DATE  = 
ORIGINATOR     = 

OBJECT_NAME    = DELTA 2 R/B(1)
OBJECT_ID      = 1990-008B
CENTER_NAME    = EARTH
REF_FRAME      = TEME
TIME_SYSTEM    = UTC
MEAN_ELEMENT_THEORY = SGP/SGP4

EPOCH          = 2025-10-27T08:39:15.183360
MEAN_MOTION    = 15.41051700
ECCENTRICITY   = .0118456
INCLINATION    = 35.6081
RA_OF_ASC_NODE = 319.0607
ARG_OF_PERICENTER = 116.6940
MEAN_ANOMALY   = 244.5973

EPHEMERIS_TYPE = 0
CLASSIFICATION_TYPE = U
NORAD_CAT_ID   = 20453
ELEMENT_SET_NO = 999
REV_AT_EPOCH   = 90546
BSTAR          = .59044E-3
MEAN_MOTION_DOT = .32467E-3
MEAN_MOTION_DDOT = 0

CCSDS_OMM_VERS = 2.0
CREATION_DATE  = 
ORIGINATOR     = 

OBJECT_NAME    = COSMOS 2058
OBJECT_ID      = 1990-010A
CENTER_NAME    = EARTH
REF_FRAME      = TEME
TIME_SYSTEM    = UTC
MEAN_ELEMENT_THEORY = SGP/SGP4

EPOCH          = 2025-10-27T12:13:53.798880
MEAN_MOTION    = 15.09966061
ECCENTRICITY   = .0011352
INCLINATION    = 82.4703
RA_OF_ASC_NODE = 178.4985
ARG_OF_PERICENTER = 69.4471
MEAN_ANOMALY   = 290.7976

EPHEMERIS_TYPE = 0
CLASSIFICATION_TYPE = U
NORAD_CAT_ID   = 20465
ELEMENT_SET_NO = 999
REV_AT_EPOCH   = 92213
BSTAR          = .24936E-3
MEAN_MOTION_DOT = .408E-4
MEAN_MOTION_DDOT = 0

CCSDS_OMM_VERS = 2.0
CREATION_DATE  = 
ORIGINATOR     = 

OBJECT_NAME    = SL-14 R/B
OBJECT_ID      = 1990-010B
CENTER_NAME    = EARTH
REF_FRAME      = TEME
TIME_SYSTEM    = UTC
MEAN_ELEMENT_THEORY = SGP/SGP4

EPOCH          = 2025-10-27T12:58:20.460576
MEAN_MOTION    = 14.83407475
ECCENTRICITY   = .0020369
INCLINATION    = 82.5053
RA_OF_ASC_NODE = 32.4252
ARG_OF_PERICENTER = 22.8429
MEAN_ANOMALY   = 337.3687

EPHEMERIS_TYPE = 0
CLASSIFICATION_TYPE = U
NORAD_CAT_ID   = 20466
ELEMENT_SET_NO = 999
REV_AT_EPOCH   = 90874
BSTAR          = .80147E-4
MEAN_MOTION_DOT = .683E-5
MEAN_MOTION_DDOT = 0

CCSDS_OMM_VERS = 2.0
CREATION_DATE  = 
ORIGINATOR     = 

OBJECT_NAME    = SL-14 R/B
OBJECT_ID      = 1990-018B
CENTER_NAME    = EARTH
REF_FRAME      = TEME
TIME_SYSTEM    = UTC
MEAN_ELEMENT_THEORY = SGP/SGP4

EPOCH          = 2025-10-27T10:19:32.924352
MEAN_MOTION    = 14.81983015
ECCENTRICITY   = .0016795
INCLINATION    = 82.5228
RA_OF_ASC_NODE = 347.6513
ARG_OF_PERICENTER = 165.6708
MEAN_ANOMALY   = 194.4987

EPHEMERIS_TYPE = 0
CLASSIFICATION_TYPE = U
NORAD_CAT_ID   = 20511
ELEMENT_SET_NO = 999
REV_AT_EPOCH   = 90284
BSTAR          = .72578E-4
MEAN_MOTION_DOT = .6E-5
MEAN_MOTION_DDOT = 0

CCSDS_OMM_VERS = 2.0
CREATION_DATE  = 
ORIGINATOR     = 

OBJECT_NAME    = HST
OBJECT_ID      = 1990-037B
CENTER_NAME    = EARTH
REF_FRAME      = TEME
TIME_SYSTEM    = UTC
MEAN_ELEMENT_THEORY = SGP/SGP4

EPOCH          = 2025-10-27T11:20:37.041216
MEAN_MOTION    = 15.27172683
ECCENTRICITY   = .0002133
INCLINATION    = 28.4674
RA_OF_ASC_NODE = 227.2010
ARG_OF_PERICENTER = 78.1955
MEAN_ANOMALY   = 281.8879

EPHEMERIS_TYPE = 0
CLASSIFICATION_TYPE = U
NORAD_CAT_ID   = 20580
ELEMENT_SET_NO = 999
REV_AT_EPOCH   = 75291
BSTAR          = .32069E-3
MEAN_MOTION_DOT = .9017E-4
MEAN_MOTION_DDOT = 0

CCSDS_OMM_VERS = 2.0
CREATION_DATE  = 
ORIGINATOR     = 

OBJECT_NAME    = SL-16 R/B
OBJECT_ID      = 1990-046B
CENTER_NAME    = EARTH
REF_FRAME      = TEME
TIME_SYSTEM    = UTC
MEAN_ELEMENT_THEORY = SGP/SGP4

EPOCH          = 2025-10-27T12:18:27.760320
MEAN_MOTION    = 14.14991024
ECCENTRICITY   = .0013057
INCLINATION    = 71.0000
RA_OF_ASC_NODE = 217.5990
ARG_OF_PERICENTER = 155.3569
MEAN_ANOMALY   = 204.8180

EPHEMERIS_TYPE = 0
CLASSIFICATION_TYPE = U
NORAD_CAT_ID   = 20625
ELEMENT_SET_NO = 999
REV_AT_EPOCH   = 82955
BSTAR          = .12965E-3
MEAN_MOTION_DOT = .204E-5
MEAN_MOTION_DDOT = 0

CCSDS_OMM_VERS = 2.0
CREATION_DATE  = 
ORIGINATOR     = 

OBJECT_NAME    = COSMOS 2084
OBJECT_ID      = 1990-055A
CENTER_NAME    = EARTH
REF_FRAME      = TEME
TIME_SYSTEM    = UTC
MEAN_ELEMENT_THEORY = SGP/SGP4

EPOCH          = 2025-10-27T12:24:33.071616
MEAN_MOTION    = 15.04587150
ECCENTRICITY   = .0039529
INCLINATION    = 62.7911
RA_OF_ASC_NODE = 69.4402
ARG_OF_PERICENTER = 169.2632
MEAN_ANOMALY   = 190.9321

EPHEMERIS_TYPE = 0
CLASSIFICATION_TYPE = U
NORAD_CAT_ID   = 20663
ELEMENT_SET_NO = 999
REV_AT_EPOCH   = 91627
BSTAR          = .37653E-3
MEAN_MOTION_DOT = .5199E-4
MEAN_MOTION_DDOT = 0

CCSDS_OMM_VERS = 2.0
CREATION_DATE  = 
ORIGINATOR     = 

OBJECT_NAME    = SL-6 R/B(2)
OBJECT_ID      = 1990-055D
CENTER_NAME    = EARTH
REF_FRAME      = TEME
TIME_SYSTEM    = UTC
MEAN_ELEMENT_THEORY = SGP/SGP4

EPOCH          = 2025-10-27T12:36:08.250336
MEAN_MOTION    = 15.02736972
ECCENTRICITY   = .00107
INCLINATION    = 62.7849
RA_OF_ASC_NODE = 346.4058
ARG_OF_PERICENTER = 266.1988
MEAN_ANOMALY   = 93.7887

EPHEMERIS_TYPE = 0
CLASSIFICATION_TYPE = U
NORAD_CAT_ID   = 20666
ELEMENT_SET_NO = 999
REV_AT_EPOCH   = 91817
BSTAR          = .2329E-3
MEAN_MOTION_DOT = .2935E-4
MEAN_MOTION_DDOT = 0

CCSDS_OMM_VERS = 2.0
CREATION_DATE  = 
ORIGINATOR     = 

OBJECT_NAME    = SL-8 R/B
OBJECT_ID      = 1990-078B
CENTER_NAME    = EARTH
REF_FRAME      = TEME
TIME_SYSTEM    = UTC
MEAN_ELEMENT_THEORY = SGP/SGP4

EPOCH          = 2025-10-27T05:28:14.780640
MEAN_MOTION    = 14.83628150
ECCENTRICITY   = .0383822
INCLINATION    = 82.9087
RA_OF_ASC_NODE = 10.8442
ARG_OF_PERICENTER = 101.2086
MEAN_ANOMALY   = 263.2521

EPHEMERIS_TYPE = 0
CLASSIFICATION_TYPE = U
NORAD_CAT_ID   = 20775
ELEMENT_SET_NO = 999
REV_AT_EPOCH   = 78947
BSTAR          = .4819E-3
MEAN_MOTION_DOT = .15566E-3
MEAN_MOTION_DDOT = 0

CCSDS_OMM_VERS = 2.0
CREATION_DATE  = 
ORIGINATOR     = 

OBJECT_NAME    = SL-8 R/B
OBJECT_ID      = 1991-006B
CENTER_NAME    = EARTH
REF_FRAME      = TEME
TIME_SYSTEM    = UTC
MEAN_ELEMENT_THEORY = SGP/SGP4

EPOCH          = 2025-10-27T10:03:01.313280
MEAN_MOTION    = 13.77479221
ECCENTRICITY   = .0023676
INCLINATION    = 82.9393
RA_OF_ASC_NODE = 269.1727
ARG_OF_PERICENTER = 50.8060
MEAN_ANOMALY   = 61.9501

EPHEMERIS_TYPE = 0
CLASSIFICATION_TYPE = U
NORAD_CAT_ID   = 21088
ELEMENT_SET_NO = 999
REV_AT_EPOCH   = 74572
BSTAR          = .17905E-3
MEAN_MOTION_DOT = .194E-5
MEAN_MOTION_DDOT = 0

